{
  "type": "FeatureCollection",
  "features": [
    {
      "type": "Feature",
      "properties": {
        "norad_id": 41599,
        "name": "CARTOSAT-2C",
        "group": "resource",
        "lat": -58.50933025606612,
        "lon": 61.23949935437664,
        "alt_km": 517.7596681522873,
        "timestamp": "2025-12-17T15:50:09.434209+00:00",
        "meta_object_name": "CARTOSAT-2C",
        "meta_object_id": "2016-040A",
        "meta_epoch": "2025-12-17T08:11:32.678880",
        "meta_mean_motion": 15.19155659,
        "meta_eccentricity": 0.00113484,
        "meta_inclination": 97.4764,
        "meta_ra_of_asc_node": 48.5451,
        "meta_arg_of_pericenter": 48.4708,
        "meta_mean_anomaly": 311.7499,
        "meta_ephemeris_type": 0,
        "meta_classification_type": "U",
        "meta_norad_cat_id": 41599,
        "meta_element_set_no": 999,
        "meta_rev_at_epoch": 52610,
        "meta_bstar": 0.00015379134,
        "meta_mean_motion_dot": 3.168e-05,
        "meta_mean_motion_ddot": 0,
        "tle_line1": "1 41599U 16040A   25351.34135045  .00003168  00000+0  15379-3 0  9995",
        "tle_line2": "2 41599  97.4764  48.5451 0011348  48.4708 311.7499 15.19155659526107"
      },
      "geometry": {
        "type": "Point",
        "coordinates": [
          61.23949935437664,
          -58.50933025606612
        ]
      }
    },
    {
      "type": "Feature",
      "properties": {
        "norad_id": 41601,
        "name": "SKYSAT-C1",
        "group": "resource",
        "lat": -52.3348325185946,
        "lon": -160.73900226760085,
        "alt_km": 475.59338187560024,
        "timestamp": "2025-12-17T15:50:09.434219+00:00",
        "meta_object_name": "SKYSAT-C1",
        "meta_object_id": "2016-040C",
        "meta_epoch": "2025-12-17T08:33:19.646496",
        "meta_mean_motion": 15.32674268,
        "meta_eccentricity": 0.0001827,
        "meta_inclination": 96.9823,
        "meta_ra_of_asc_node": 28.1102,
        "meta_arg_of_pericenter": 0.0968,
        "meta_mean_anomaly": 0.0275,
        "meta_ephemeris_type": 0,
        "meta_classification_type": "U",
        "meta_norad_cat_id": 41601,
        "meta_element_set_no": 999,
        "meta_rev_at_epoch": 52998,
        "meta_bstar": 0.00024488865,
        "meta_mean_motion_dot": 7.656e-05,
        "meta_mean_motion_ddot": 0,
        "tle_line1": "1 41601U 16040C   25351.35647739  .00007656  00000+0  24489-3 0  9996",
        "tle_line2": "2 41601  96.9823  28.1102 0001827   0.0968   0.0275 15.32674268529987"
      },
      "geometry": {
        "type": "Point",
        "coordinates": [
          -160.73900226760085,
          -52.3348325185946
        ]
      }
    },
    {
      "type": "Feature",
      "properties": {
        "norad_id": 41603,
        "name": "LAPAN-A3",
        "group": "resource",
        "lat": -2.229246859050581,
        "lon": -10.682909607499342,
        "alt_km": 469.88886581983934,
        "timestamp": "2025-12-17T15:50:09.434231+00:00",
        "meta_object_name": "LAPAN-A3",
        "meta_object_id": "2016-040E",
        "meta_epoch": "2025-12-17T06:26:15.478080",
        "meta_mean_motion": 15.31589311,
        "meta_eccentricity": 0.00091919,
        "meta_inclination": 97.1424,
        "meta_ra_of_asc_node": 348.66,
        "meta_arg_of_pericenter": 315.8152,
        "meta_mean_anomaly": 44.2355,
        "meta_ephemeris_type": 0,
        "meta_classification_type": "U",
        "meta_norad_cat_id": 41603,
        "meta_element_set_no": 999,
        "meta_rev_at_epoch": 52695,
        "meta_bstar": 0.00011306942,
        "meta_mean_motion_dot": 3.378e-05,
        "meta_mean_motion_ddot": 0,
        "tle_line1": "1 41603U 16040E   25351.26823470  .00003378  00000+0  11307-3 0  9998",
        "tle_line2": "2 41603  97.1424 348.6600 0009191 315.8152  44.2355 15.31589311526952"
      },
      "geometry": {
        "type": "Point",
        "coordinates": [
          -10.682909607499342,
          -2.229246859050581
        ]
      }
    },
    {
      "type": "Feature",
      "properties": {
        "norad_id": 41604,
        "name": "BIROS",
        "group": "resource",
        "lat": 33.15314955584311,
        "lon": -152.05417919645177,
        "alt_km": 293.4871321175233,
        "timestamp": "2025-12-17T15:50:09.434241+00:00",
        "meta_object_name": "BIROS",
        "meta_object_id": "2016-040F",
        "meta_epoch": "2025-12-17T01:38:28.018176",
        "meta_mean_motion": 15.91374063,
        "meta_eccentricity": 0.00037455,
        "meta_inclination": 97.0679,
        "meta_ra_of_asc_node": 22.68,
        "meta_arg_of_pericenter": 137.3432,
        "meta_mean_anomaly": 222.8134,
        "meta_ephemeris_type": 0,
        "meta_classification_type": "U",
        "meta_norad_cat_id": 41604,
        "meta_element_set_no": 999,
        "meta_rev_at_epoch": 52941,
        "meta_bstar": 0.00054683239,
        "meta_mean_motion_dot": 0.00173773,
        "meta_mean_motion_ddot": 1.3037972e-05,
        "tle_line1": "1 41604U 16040F   25351.06837984  .00173773  13038-4  54683-3 0  9993",
        "tle_line2": "2 41604  97.0679  22.6800 0003745 137.3432 222.8134 15.91374063529417"
      },
      "geometry": {
        "type": "Point",
        "coordinates": [
          -152.05417919645177,
          33.15314955584311
        ]
      }
    },
    {
      "type": "Feature",
      "properties": {
        "norad_id": 41727,
        "name": "GAOFEN-3",
        "group": "resource",
        "lat": -4.970050566918597,
        "lon": -2.0918688226028213,
        "alt_km": 754.3530139061259,
        "timestamp": "2025-12-17T15:50:09.434252+00:00",
        "meta_object_name": "GAOFEN-3",
        "meta_object_id": "2016-049A",
        "meta_epoch": "2025-12-17T07:32:01.746240",
        "meta_mean_motion": 14.4221456,
        "meta_eccentricity": 0.00012968,
        "meta_inclination": 98.4038,
        "meta_ra_of_asc_node": 356.8309,
        "meta_arg_of_pericenter": 59.2902,
        "meta_mean_anomaly": 300.8416,
        "meta_ephemeris_type": 0,
        "meta_classification_type": "U",
        "meta_norad_cat_id": 41727,
        "meta_element_set_no": 999,
        "meta_rev_at_epoch": 49243,
        "meta_bstar": 2.50262e-06,
        "meta_mean_motion_dot": -3.5e-07,
        "meta_mean_motion_ddot": 0,
        "tle_line1": "1 41727U 16049A   25351.31390910 -.00000035  00000+0  25026-5 0  9991",
        "tle_line2": "2 41727  98.4038 356.8309 0001296  59.2902 300.8416 14.42214560492437"
      },
      "geometry": {
        "type": "Point",
        "coordinates": [
          -2.0918688226028213,
          -4.970050566918597
        ]
      }
    },
    {
      "type": "Feature",
      "properties": {
        "norad_id": 41771,
        "name": "SKYSAT-C4",
        "group": "resource",
        "lat": -20.643365835533242,
        "lon": 19.237996486006853,
        "alt_km": 445.55860462433156,
        "timestamp": "2025-12-17T15:50:09.434262+00:00",
        "meta_object_name": "SKYSAT-C4",
        "meta_object_id": "2016-058B",
        "meta_epoch": "2025-12-17T00:21:19.311840",
        "meta_mean_motion": 15.42373505,
        "meta_eccentricity": 0.00019016,
        "meta_inclination": 96.9372,
        "meta_ra_of_asc_node": 15.995,
        "meta_arg_of_pericenter": 132.1299,
        "meta_mean_anomaly": 228.0111,
        "meta_ephemeris_type": 0,
        "meta_classification_type": "U",
        "meta_norad_cat_id": 41771,
        "meta_element_set_no": 999,
        "meta_rev_at_epoch": 51733,
        "meta_bstar": 0.00029968185,
        "meta_mean_motion_dot": 0.0001286,
        "meta_mean_motion_ddot": 0,
        "tle_line1": "1 41771U 16058B   25351.01480685  .00012860  00000+0  29968-3 0  9991",
        "tle_line2": "2 41771  96.9372  15.9950 0001901 132.1299 228.0111 15.42373505517334"
      },
      "geometry": {
        "type": "Point",
        "coordinates": [
          19.237996486006853,
          -20.643365835533242
        ]
      }
    },
    {
      "type": "Feature",
      "properties": {
        "norad_id": 41772,
        "name": "SKYSAT-C5",
        "group": "resource",
        "lat": 68.99757466036921,
        "lon": -125.91553002194887,
        "alt_km": 459.7808014806724,
        "timestamp": "2025-12-17T15:50:09.434272+00:00",
        "meta_object_name": "SKYSAT-C5",
        "meta_object_id": "2016-058C",
        "meta_epoch": "2025-12-17T02:50:02.420448",
        "meta_mean_motion": 15.33955004,
        "meta_eccentricity": 0.00037744,
        "meta_inclination": 97.0757,
        "meta_ra_of_asc_node": 34.6878,
        "meta_arg_of_pericenter": 272.9339,
        "meta_mean_anomaly": 87.1473,
        "meta_ephemeris_type": 0,
        "meta_classification_type": "U",
        "meta_norad_cat_id": 41772,
        "meta_element_set_no": 999,
        "meta_rev_at_epoch": 51583,
        "meta_bstar": 0.00023470132,
        "meta_mean_motion_dot": 7.636e-05,
        "meta_mean_motion_ddot": 0,
        "tle_line1": "1 41772U 16058C   25351.11808357  .00007636  00000+0  23470-3 0  9990",
        "tle_line2": "2 41772  97.0757  34.6878 0003774 272.9339  87.1473 15.33955004515837"
      },
      "geometry": {
        "type": "Point",
        "coordinates": [
          -125.91553002194887,
          68.99757466036921
        ]
      }
    }
  ]
}